ZHUHAI-1 01 (CAS-4A)    
1 42761U 17034D   24010.43959425  .00012767  00000+0  55027-3 0  9997
2 42761  43.0144  38.0398 0011432   8.5914 351.5130 15.22435648363175
CARTOSAT-2E             
1 42767U 17036C   24010.40707908  .00006537  00000+0  31391-3 0  9995
2 42767  97.4633  71.9682 0005687 175.3493 184.7795 15.19174656363201
FORMOSAT-5              
1 42920U 17049A   24009.88683423  .00000332  00000+0  95493-4 0  9996
2 42920  98.3064  89.8291 0009654 301.4971  58.5280 14.50797293337722
SENTINEL-5P             
1 42969U 17064A   24010.45489417  .00000108  00000+0  72175-4 0  9991
2 42969  98.7266 312.0581 0001459 103.6766 256.4572 14.19547585323477
SKYSAT-C11              
1 42987U 17068A   24009.79015063  .00014948  00000+0  46544-3 0  9999
2 42987  97.3403 136.3595 0004853 137.5351 222.6268 15.33367206346170
SKYSAT-C10              
1 42988U 17068B   24009.91460323  .00013723  00000+0  45590-3 0  9997
2 42988  97.3477 137.2556 0003274 293.1510  66.9386 15.31313304346225
SKYSAT-C9               
1 42989U 17068C   24010.32568144  .00014651  00000+0  47583-3 0  9990
2 42989  97.3415 135.9268 0022421 160.5295 199.6808 15.31786195346455
SKYSAT-C8               
1 42990U 17068D   24010.35257432  .00013434  00000+0  46314-3 0  9999
2 42990  97.3507 137.4843 0004347  98.0751 262.0984 15.30111661346262
SKYSAT-C7               
1 42991U 17068E   24009.90341998  .00013550  00000+0  46250-3 0  9998
2 42991  97.3500 137.3486 0003128 168.0762 192.0554 15.30439477346212
SKYSAT-C6               
1 42992U 17068F   24010.32268696  .00013020  00000+0  44548-3 0  9990
2 42992  97.3527 138.7057 0006740 104.2492 255.9498 15.30354666346319
CARTOSAT-2F             
1 43111U 18004A   24010.44051861  .00006623  00000+0  31740-3 0  9993
2 43111  97.4566  72.2577 0001957 174.2369 185.8888 15.19247722332399
GAOFEN-1 02             
1 43259U 18031A   24010.40011325  .00001221  00000+0  18209-3 0  9997
2 43259  97.8420  82.6834 0003319 341.4262  18.6826 14.76576221311540
GAOFEN-1 03             
1 43260U 18031B   24010.44596812  .00001208  00000+0  18000-3 0  9996
2 43260  97.8414  82.6601 0005950  53.5630 306.6128 14.76620560311541
GAOFEN-1 04             
1 43262U 18031D   24010.42167272  .00001257  00000+0  18722-3 0  9995
2 43262  97.8422  82.7256 0004043  20.8692 339.2683 14.76579224311533
SENTINEL-3B             
1 43437U 18039A   24009.80226438  .00000184  00000+0  93912-4 0  9990
2 43437  98.6198  78.9453 0001057  77.7836 282.3463 14.26738011297303
GAOFEN-5 01             
1 43461U 18043A   24010.44143930  .00000710  00000+0  16208-3 0  9996
2 43461  98.3369 320.0887 0001461   0.8129 359.3072 14.58805199302024
GAOFEN-6                
1 43484U 18048A   24010.45975124  .00001107  00000+0  16600-3 0  9992
2 43484  97.8814  88.8482 0010816 160.0945 200.0689 14.76488039302247
GAOFEN-11 01            
1 43585U 18063A   24010.42284797  .00008920  00000+0  34055-3 0  9991
2 43585  97.2559  80.6338 0007710 321.0409  39.0274 15.26844371303503
ICESAT-2                
1 43613U 18070A   24009.88653079  .00000241  00000+0  85318-5 0  9990
2 43613  91.9948  51.8497 0003396 359.8325   0.2922 15.28247626296644
HYSIS                   
1 43719U 18096A   24010.44132444  .00001539  00000+0  21671-3 0  9998
2 43719  97.8888  77.7269 0002892 118.4182 241.7321 14.78717876276087
KAZSTSAT                
1 43783U 18099AB  24009.73342692  .00001063  00000+0  10034-3 0  9993
2 43783  97.5530  66.6669 0008104 148.2031 211.9681 14.95741023278143
SAUDISAT 5A             
1 43831U 18102A   24010.45060370  .00004738  00000+0  26498-3 0  9996
2 43831  97.4317  79.9657 0013199  16.0742 344.0905 15.13873926280569
SAUDISAT 5B             
1 43833U 18102C   24010.42090900  .00005031  00000+0  27662-3 0  9998
2 43833  97.4357  81.5194 0014076  19.9278 340.2501 15.14439605280632
GAOFEN-10R              
1 44622U 19066A   24010.46131756  .00002225  00000+0  28402-3 0  9999
2 44622  97.9504 313.1202 0000793 291.5714  68.5415 14.82453389230690
CARTOSAT-3              
1 44804U 19081A   24010.43841128  .00005724  00000+0  27462-3 0  9998
2 44804  97.5587  68.4219 0011813  17.5878 342.5763 15.19224181228481
GAOFEN-12 01            
1 44819U 19082A   24010.42783421  .00000656  00000+0  91326-4 0  9995
2 44819  97.8314  28.2487 0001581  94.8322 265.3071 14.81003753222578
CSG-1                   
1 44873U 19092A   24010.47785820  .00000867  00000+0  11546-3 0  9995
2 44873  97.8856 195.9631 0001493  83.7715 276.3668 14.82152233219835
NUSAT-7 (SOPHIE)        
1 45017U 20003B   24010.38757414  .02613013  22723-5  10930-2 0  9990
2 45017  97.1254  81.3974 0006904 304.6038  55.4602 16.23041056223931
NUSAT-6 (HYPATIA)       
1 46272U 20061A   24010.15018592  .00035036  00000+0  71038-3 0  9996
2 46272  97.2563  82.9370 0003945 172.6278 187.5031 15.46298598186791
NEMO-HD                 
1 46277U 20061F   24010.38534317  .00006529  00000+0  27649-3 0  9998
2 46277  97.3221  76.9244 0001648  38.2031 321.9322 15.23497673185744
SENTINEL-6              
1 46984U 20086A   24009.87866239 -.00000048  00000+0  58499-4 0  9992
2 46984  66.0395 182.1544 0007691 269.6958  90.3175 12.80930072146429
GAOFEN-12 02            
1 48079U 21026A   24010.47558380  .00000765  00000+0  10583-3 0  9993
2 48079  97.9393   3.5583 0001452  61.2657 298.8701 14.80885237150257
PLEIADES NEO 3          
1 48268U 21034A   24010.45834223  .00001732  00000+0  22667-3 0  9994
2 48268  97.8932  86.9765 0001039  92.4364 267.6968 14.81668360146053
NUSAT-19 (ROSALIND)     
1 48905U 21059AC  24010.41940817  .00029804  00000+0  78726-3 0  9999
2 48905  97.5729 155.6793 0005916 217.4498 142.6334 15.38380832141324
PLEIADES NEO 4          
1 49070U 21073E   24010.42456577  .00000630  00000+0  86640-4 0  9996
2 49070  97.8939  86.9395 0001182  87.9000 272.2348 14.81673324129765
LANDSAT 9               
1 49260U 21088A   24010.20144065  .00000599  00000+0  14302-3 0  9994
2 49260  98.2080  82.3696 0001130  85.1487 274.9841 14.57103861121535
CSG-2                   
1 51444U 22008A   24010.44411833  .00000622  00000+0  84648-4 0  9998
2 51444  97.8854 195.9280 0001399  85.2216 274.9157 14.82158489104944
INS-2TD                 
1 51658U 22013C   24010.04063704  .00024932  00000+0  81642-3 0  9997
2 51658  97.5357  29.3218 0008091  14.6324 345.5149 15.31628654105543
GAOFEN-12 03            
1 52912U 22069A   24010.38978402  .00002339  00000+0  30792-3 0  9996
2 52912  97.9299 263.3381 0001474  70.2154 289.9217 14.81107139 83113
SWOT                    
1 54754U 22173A   24009.81168665  .00000081  00000+0  56456-4 0  9994
2 54754  77.6099 155.8749 0000263 317.5014  42.6118 14.00172336 54688
GAOFEN-12 04            
1 57654U 23123A   24010.42840668  .00001931  00000+0  25572-3 0  9990
2 57654  97.9116 289.9667 0002666  51.6473 308.4979 14.81037077 21129
